{
    "links": {
        "self": "http://www.neowsapp.com/rest/v1/neo/3703785?api_key=iIulBulltgU6a56xZRHN4H3l9WmuAYTsLGpBGhQ2"
    },
    "id": "3703785",
    "neo_reference_id": "3703785",
    "name": "(2015 BB)",
    "designation": "2015 BB",
    "nasa_jpl_url": "http://ssd.jpl.nasa.gov/sbdb.cgi?sstr=3703785",
    "absolute_magnitude_h": 25.0,
    "estimated_diameter": {
        "kilometers": {
            "estimated_diameter_min": 0.02658,
            "estimated_diameter_max": 0.0594346868
        },
        "meters": {
            "estimated_diameter_min": 26.58,
            "estimated_diameter_max": 59.4346868419
        },
        "miles": {
            "estimated_diameter_min": 0.0165160412,
            "estimated_diameter_max": 0.0369309908
        },
        "feet": {
            "estimated_diameter_min": 87.2047272,
            "estimated_diameter_max": 194.9956979785
        }
    },
    "is_potentially_hazardous_asteroid": false,
    "close_approach_data": [
        {
            "close_approach_date": "2011-01-18",
            "close_approach_date_full": "2011-Jan-18 10:35",
            "epoch_date_close_approach": 1295346900000,
            "relative_velocity": {
                "kilometers_per_second": "15.9692897295",
                "kilometers_per_hour": "57489.4430262223",
                "miles_per_hour": "35721.7041959324"
            },
            "miss_distance": {
                "astronomical": "0.0379398849",
                "lunar": "14.7586152261",
                "kilometers": "5675725.969085163",
                "miles": "3526732.5804267294"
            },
            "orbiting_body": "Earth"
        },
        {
            "close_approach_date": "2013-01-18",
            "close_approach_date_full": "2013-Jan-18 09:04",
            "epoch_date_close_approach": 1358499840000,
            "relative_velocity": {
                "kilometers_per_second": "15.8227804485",
                "kilometers_per_hour": "56962.0096147289",
                "miles_per_hour": "35393.9775853297"
            },
            "miss_distance": {
                "astronomical": "0.0355590704",
                "lunar": "13.8324783856",
                "kilometers": "5319561.191020048",
                "miles": "3305422.0496427424"
            },
            "orbiting_body": "Earth"
        },
        {
            "close_approach_date": "2015-01-19",
            "close_approach_date_full": "2015-Jan-19 01:20",
            "epoch_date_close_approach": 1421630400000,
            "relative_velocity": {
                "kilometers_per_second": "15.7801926943",
                "kilometers_per_hour": "56808.6936993482",
                "miles_per_hour": "35298.7130377978"
            },
            "miss_distance": {
                "astronomical": "0.0345870774",
                "lunar": "13.4543731086",
                "kilometers": "5174153.108565138",
                "miles": "3215069.6569013844"
            },
            "orbiting_body": "Earth"
        },
        {
            "close_approach_date": "2017-01-18",
            "close_approach_date_full": "2017-Jan-18 12:43",
            "epoch_date_close_approach": 1484743380000,
            "relative_velocity": {
                "kilometers_per_second": "15.7954331857",
                "kilometers_per_hour": "56863.5594683504",
                "miles_per_hour": "35332.804492987"
            },
            "miss_distance": {
                "astronomical": "0.0348211789",
                "lunar": "13.5454385921",
                "kilometers": "5209174.194328943",
                "miles": "3236830.7505196934"
            },
            "orbiting_body": "Earth"
        },
        {
            "close_approach_date": "2019-01-18",
            "close_approach_date_full": "2019-Jan-18 14:20",
            "epoch_date_close_approach": 1547821200000,
            "relative_velocity": {
                "kilometers_per_second": "15.9180080011",
                "kilometers_per_hour": "57304.8288039352",
                "miles_per_hour": "35606.9920976452"
            },
            "miss_distance": {
                "astronomical": "0.037301171",
                "lunar": "14.510155519",
                "kilometers": "5580175.73010577",
                "miles": "3467360.415048826"
            },
            "orbiting_body": "Earth"
        }
    ],
    "orbital_data": {
        "orbit_id": "5",
        "orbit_determination_date": "2019-07-11 06:08:32",
        "first_observation_date": "2015-01-16",
        "last_observation_date": "2015-01-17",
        "data_arc_in_days": 1,
        "observations_used": 55,
        "orbit_uncertainty": "7",
        "minimum_orbit_intersection": ".0343066",
        "jupiter_tisserand_invariant": "4.199",
        "epoch_osculation": "2459000.5",
        "eccentricity": ".4243518813051226",
        "semi_major_axis": "1.585843986612304",
        "inclination": "23.33927904824536",
        "ascending_node_longitude": "116.1577527557847",
        "orbital_period": "729.4392300701277",
        "perihelion_distance": ".9128881074369573",
        "perihelion_argument": "50.67801651738494",
        "aphelion_distance": "2.258799865787651",
        "perihelion_time": "2459269.744322928009",
        "mean_anomaly": "227.119902168184",
        "mean_motion": ".4935298036621775",
        "equinox": "J2000",
        "orbit_class": {
            "orbit_class_type": "APO",
            "orbit_class_description": "Near-Earth asteroid orbits which cross the Earth’s orbit similar to that of 1862 Apollo",
            "orbit_class_range": "a (semi-major axis) > 1.0 AU; q (perihelion) < 1.017 AU"
        }
    },
    "is_sentry_object": false
}